     3.05           N: GNSS NAV DATA    S: SBAS             RINEX VERSION / TYPE
Converto v3.5.11    BKG Frankfurt       20260809 092015 UTC PGM / RUN BY / DATE 
gfzrnx-2.2.0        FILE MERGE          20260809 092234 UTC COMMENT             
BDSA   3.2596e-08  6.7055e-08 -1.0133e-06  1.5497e-06       IONOSPHERIC CORR    
BDSA   1.8626e-08  1.1921e-07 -1.0133e-06  1.6093E-06 A     IONOSPHERIC CORR    
BDSA   1.8626e-08  1.1921e-07 -1.0133e-06  1.6093E-06 B  2  IONOSPHERIC CORR    
BDSA   1.8626e-08  1.1176e-07 -1.0133e-06  1.6093E-06 C     IONOSPHERIC CORR    
BDSA   1.8626e-08  1.1176e-07 -1.0133e-06  1.6093E-06 D     IONOSPHERIC CORR    
BDSA   1.9558e-08  1.0431e-07 -1.0133e-06  1.6093E-06 E  2  IONOSPHERIC CORR    
BDSA   1.9558e-08  1.0431e-07 -1.0133e-06  1.6093E-06 F  2  IONOSPHERIC CORR    
BDSA   1.9558e-08  8.9407e-08 -9.5367e-07  1.5497E-06 G  2  IONOSPHERIC CORR    
BDSA   1.9558e-08  8.9407e-08 -9.5367e-07  1.5497E-06 H  2  IONOSPHERIC CORR    
BDSA   2.0489e-08  8.1956e-08 -8.9407e-07  1.4901E-06 I  2  IONOSPHERIC CORR    
BDSA   2.0489e-08  8.1956e-08 -8.9407e-07  1.4901E-06 J     IONOSPHERIC CORR    
BDSA   1.9558e-08  8.1956e-08 -8.9407e-07  1.4305E-06 K  2  IONOSPHERIC CORR    
BDSA   1.9558e-08  8.1956e-08 -8.9407e-07  1.4305E-06 L  2  IONOSPHERIC CORR    
BDSA   1.9558e-08  8.1956e-08 -8.9407e-07  1.4901E-06 M  2  IONOSPHERIC CORR    
BDSA   1.9558e-08  8.1956e-08 -8.9407e-07  1.4901E-06 N  2  IONOSPHERIC CORR    
BDSA   1.9558e-08  8.1956e-08 -8.9407e-07  1.4901E-06 O  2  IONOSPHERIC CORR    
BDSA   1.7695e-08  1.1921e-07 -1.0133e-06  1.6093E-06 P 29  IONOSPHERIC CORR    
BDSA   1.9558e-08  8.1956e-08 -8.9407e-07  1.4305E-06 Q  2  IONOSPHERIC CORR    
BDSA   1.9558e-08  8.1956e-08 -8.9407e-07  1.4305E-06 R  2  IONOSPHERIC CORR    
BDSA   1.9558e-08  8.1956e-08 -8.9407e-07  1.4305E-06 S  2  IONOSPHERIC CORR    
BDSA   1.9558e-08  8.1956e-08 -8.9407e-07  1.4305E-06 T  2  IONOSPHERIC CORR    
BDSA   1.9558e-08  8.1956e-08 -8.9407e-07  1.4901E-06 U  2  IONOSPHERIC CORR    
BDSA   1.9558e-08  8.1956e-08 -8.9407e-07  1.4901E-06 V     IONOSPHERIC CORR    
BDSA   1.9558e-08  8.1956e-08 -8.9407e-07  1.4305E-06 W  2  IONOSPHERIC CORR    
BDSA   1.9558e-08  8.1956e-08 -8.9407e-07  1.4305E-06 X  2  IONOSPHERIC CORR    
BDSB   1.1264e+05  2.6214e+05 -3.9322e+05  6.5536e+04       IONOSPHERIC CORR    
BDSB   1.4336e+05 -7.3728e+05  5.3740e+06 -4.3909E+06 A     IONOSPHERIC CORR    
BDSB   1.4336e+05 -7.3728e+05  5.3740e+06 -4.3909E+06 B  2  IONOSPHERIC CORR    
BDSB   1.4746e+05 -7.7005e+05  5.4395e+06 -4.4564E+06 C     IONOSPHERIC CORR    
BDSB   1.4746e+05 -7.7005e+05  5.4395e+06 -4.4564E+06 D     IONOSPHERIC CORR    
BDSB   1.4746e+05 -7.2090e+05  5.3084e+06 -4.3909E+06 E  2  IONOSPHERIC CORR    
BDSB   1.4746e+05 -7.2090e+05  5.3084e+06 -4.3909E+06 F  2  IONOSPHERIC CORR    
BDSB   1.4541e+05 -6.5536e+05  5.0463e+06 -4.1943E+06 G  2  IONOSPHERIC CORR    
BDSB   1.4541e+05 -6.5536e+05  5.0463e+06 -4.1943E+06 H  2  IONOSPHERIC CORR    
BDSB   1.4336e+05 -6.2259e+05  4.9152e+06 -4.1943E+06 I  2  IONOSPHERIC CORR    
BDSB   1.4336e+05 -6.2259e+05  4.9152e+06 -4.1943E+06 J     IONOSPHERIC CORR    
BDSB   1.4541e+05 -6.3898e+05  4.9807e+06 -4.1943E+06 K  2  IONOSPHERIC CORR    
BDSB   1.4541e+05 -6.3898e+05  4.9807e+06 -4.1943E+06 L  2  IONOSPHERIC CORR    
BDSB   1.4541e+05 -6.3898e+05  4.9152e+06 -4.1288E+06 M  2  IONOSPHERIC CORR    
BDSB   1.4541e+05 -6.3898e+05  4.9152e+06 -4.1288E+06 N  2  IONOSPHERIC CORR    
BDSB   1.4131e+05 -5.2429e+05  4.4564e+06 -3.8666E+06 O  2  IONOSPHERIC CORR    
BDSB   1.4131e+05 -5.2429e+05  4.4564e+06 -3.8666E+06 P     IONOSPHERIC CORR    
BDSB   1.4336e+05 -4.4237e+05  3.9977e+06 -3.5389E+06 Q  2  IONOSPHERIC CORR    
BDSB   1.4336e+05 -4.4237e+05  3.9977e+06 -3.5389E+06 R  2  IONOSPHERIC CORR    
BDSB   1.4746e+05 -5.2429e+05  4.3254e+06 -3.8011E+06 S  2  IONOSPHERIC CORR    
BDSB   1.4746e+05 -5.2429e+05  4.3254e+06 -3.8011E+06 T  2  IONOSPHERIC CORR    
BDSB   1.4336e+05 -5.4067e+05  4.5220e+06 -3.9322E+06 U  2  IONOSPHERIC CORR    
BDSB   1.4336e+05 -5.4067e+05  4.5220e+06 -3.9322E+06 V     IONOSPHERIC CORR    
BDSB   1.4131e+05 -5.2429e+05  4.3909e+06 -3.8666E+06 W  2  IONOSPHERIC CORR    
BDSB   1.4131e+05 -5.2429e+05  4.3909e+06 -3.8666E+06 X  2  IONOSPHERIC CORR    
GAL    7.1500e+01  2.2270e-01  2.4410e-02   .0000E+00       IONOSPHERIC CORR    
GPSA   8.3819e-09  2.2352e-08 -5.9605e-08 -1.1921E-07       IONOSPHERIC CORR    
GPSB   9.2160e+04  1.1469e+05 -6.5536e+04 -5.8982E+05       IONOSPHERIC CORR    
IRNA   3.7253e-08  1.7136e-07 -2.3842e-07 -7.5102E-06 A     IONOSPHERIC CORR    
IRNB   1.7408e+05 -6.5536e+04 -8.3231e+06  8.3231E+06 A     IONOSPHERIC CORR    
QZSA   1.6764e-08  1.4901e-08 -2.9802e-07 -5.9605E-07       IONOSPHERIC CORR    
QZSB   1.2698e+05  9.8304e+04 -1.3107e+05  3.3423E+06       IONOSPHERIC CORR    
BDUT  0.0000000000e+00 0.000000000e+00     14 1074          TIME SYSTEM CORR    
GAGP  6.6065695137E-09 6.217248938E-15      0 2431          TIME SYSTEM CORR    
GAUT  2.7939677238E-09-8.881784197E-16 518400 2430          TIME SYSTEM CORR    
GLGP -1.0782000000E+04 0.000000000E+00 515718 2430          TIME SYSTEM CORR    
GLUT  6.5192580223E-09 0.000000000E+00 515718 2430          TIME SYSTEM CORR    
GPUT -1.8626451492E-09-3.552713679E-15 147456 2431          TIME SYSTEM CORR    
IRUT  1.0797521099E-08 1.598721155E-14 517200 1406          TIME SYSTEM CORR    
QZUT   .2793967724E-08  .000000000E+00  94208 2431          TIME SYSTEM CORR    
    18                                                      LEAP SECONDS        
WAAS subset of BKG BRDC00WRD_R_20262200000_01D_MN.rnx       COMMENT
                                                            END OF HEADER
S31 2026 08 08 11 02 24 1.676380634308e-08-3.637978807092e-12 5.581180000000e+05
    -1.913838048000e+04-1.193750000000e-04 1.250000000000e-08 3.100000000000e+01
    -3.757204600000e+04 9.750000000000e-05 1.250000000000e-08 2.000000000000e+00
     1.443200000000e+00 2.160000000000e-04 0.000000000000e+00 9.100000000000e+01
S31 2026 08 08 11 06 40 1.583248376846e-08-2.728484105319e-12 5.583760000000e+05
    -1.913841064000e+04-1.181250000000e-04 1.250000000000e-08 3.100000000000e+01
    -3.757202064000e+04 9.875000000000e-05 1.250000000000e-08 2.000000000000e+00
     1.498400000000e+00 2.120000000000e-04 0.000000000000e+00 9.200000000000e+01
S31 2026 08 08 11 10 56 1.490116119385e-08-1.818989403546e-12 5.586300000000e+05
    -1.913844048000e+04-1.143750000000e-04 1.250000000000e-08 3.100000000000e+01
    -3.757199496000e+04 1.006250000000e-04 1.250000000000e-08 2.000000000000e+00
     1.552800000000e+00 2.080000000000e-04 0.000000000000e+00 9.300000000000e+01
S31 2026 08 08 11 15 12 1.443549990654e-08-9.094947017729e-13 5.588860000000e+05
    -1.913846936000e+04-1.137500000000e-04 1.250000000000e-08 3.100000000000e+01
    -3.757196880000e+04 1.018750000000e-04 0.000000000000e+00 2.000000000000e+00
     1.606000000000e+00 2.080000000000e-04 0.000000000000e+00 9.400000000000e+01
S31 2026 08 08 11 19 28 1.396983861923e-08 9.094947017729e-13 5.591440000000e+05
    -1.913849808000e+04-1.093750000000e-04 1.250000000000e-08 3.100000000000e+01
    -3.757194272000e+04 1.050000000000e-04 0.000000000000e+00 2.000000000000e+00
     1.659200000000e+00 2.080000000000e-04 0.000000000000e+00 9.500000000000e+01
S31 2026 08 08 11 23 44 1.396983861923e-08 2.728484105319e-12 5.593980000000e+05
    -1.913852568000e+04-1.068750000000e-04 1.250000000000e-08 3.100000000000e+01
    -3.757191584000e+04 1.068750000000e-04 0.000000000000e+00 2.000000000000e+00
     1.712400000000e+00 2.040000000000e-04 0.000000000000e+00 9.600000000000e+01
S31 2026 08 08 11 28 00 1.443549990654e-08 2.728484105319e-12 5.596540000000e+05
    -1.913855264000e+04-1.037500000000e-04 1.250000000000e-08 3.100000000000e+01
    -3.757188848000e+04 1.075000000000e-04 0.000000000000e+00 2.000000000000e+00
     1.764800000000e+00 2.000000000000e-04 0.000000000000e+00 9.700000000000e+01
S31 2026 08 08 11 32 16 1.490116119385e-08 3.637978807092e-12 5.599120000000e+05
    -1.913857880000e+04-1.000000000000e-04 1.250000000000e-08 3.100000000000e+01
    -3.757186096000e+04 1.100000000000e-04 0.000000000000e+00 2.000000000000e+00
     1.816000000000e+00 2.000000000000e-04 0.000000000000e+00 9.800000000000e+01
S31 2026 08 08 11 36 32 1.583248376846e-08 4.547473508865e-12 5.601660000000e+05
    -1.913860400000e+04-9.562500000000e-05 1.250000000000e-08 3.100000000000e+01
    -3.757183280000e+04 1.112500000000e-04 0.000000000000e+00 2.000000000000e+00
     1.867200000000e+00 2.000000000000e-04 0.000000000000e+00 9.900000000000e+01
S31 2026 08 08 11 40 48 1.676380634308e-08 3.637978807092e-12 5.604220000000e+05
    -1.913862808000e+04-9.437500000000e-05 1.250000000000e-08 3.100000000000e+01
    -3.757180432000e+04 1.112500000000e-04 0.000000000000e+00 2.000000000000e+00
     1.918400000000e+00 1.920000000000e-04 0.000000000000e+00 1.000000000000e+02
S31 2026 08 08 11 45 04 1.769512891769e-08 1.818989403546e-12 5.606800000000e+05
    -1.913865184000e+04-8.750000000000e-05 1.250000000000e-08 3.100000000000e+01
    -3.757177584000e+04 1.143750000000e-04 0.000000000000e+00 2.000000000000e+00
     1.967600000000e+00 1.960000000000e-04 0.000000000000e+00 1.010000000000e+02
S31 2026 08 08 11 49 20 1.816079020500e-08-9.094947017729e-13 5.609340000000e+05
    -1.913867384000e+04-8.250000000000e-05 1.250000000000e-08 3.100000000000e+01
    -3.757174656000e+04 1.162500000000e-04 0.000000000000e+00 2.000000000000e+00
     2.017600000000e+00 1.880000000000e-04 0.000000000000e+00 1.020000000000e+02
S31 2026 08 08 11 53 36 1.769512891769e-08-3.637978807092e-12 5.611900000000e+05
    -1.913869456000e+04-7.937500000000e-05 1.250000000000e-08 3.100000000000e+01
    -3.757171680000e+04 1.175000000000e-04 0.000000000000e+00 2.000000000000e+00
     2.065600000000e+00 1.880000000000e-04 0.000000000000e+00 1.030000000000e+02
S31 2026 08 08 11 57 52 1.676380634308e-08-8.185452315956e-12 5.614480000000e+05
    -1.913871448000e+04-7.500000000000e-05 1.250000000000e-08 3.100000000000e+01
    -3.757168672000e+04 1.175000000000e-04 0.000000000000e+00 2.000000000000e+00
     2.113600000000e+00 1.880000000000e-04 0.000000000000e+00 1.040000000000e+02
S31 2026 08 08 12 02 08 1.443549990654e-08-1.273292582482e-11 5.617020000000e+05
    -1.913873328000e+04-7.125000000000e-05 1.250000000000e-08 3.100000000000e+01
    -3.757165664000e+04 1.187500000000e-04 0.000000000000e+00 2.000000000000e+00
     2.161600000000e+00 1.840000000000e-04 0.000000000000e+00 1.050000000000e+02
S31 2026 08 08 12 06 24 1.117587089539e-08-1.728039933369e-11 5.619580000000e+05
    -1.913875112000e+04-6.625000000000e-05 1.250000000000e-08 3.100000000000e+01
    -3.757162624000e+04 1.193750000000e-04 0.000000000000e+00 2.000000000000e+00
     2.208800000000e+00 1.800000000000e-04 0.000000000000e+00 1.060000000000e+02
S31 2026 08 08 12 10 40 6.519258022308e-09-2.182787284255e-11 5.622160000000e+05
    -1.913876768000e+04-6.687500000000e-05 1.250000000000e-08 3.100000000000e+01
    -3.757159568000e+04 1.156250000000e-04 0.000000000000e+00 2.000000000000e+00
     2.254800000000e+00 1.760000000000e-04 0.000000000000e+00 1.070000000000e+02
S31 2026 08 08 12 14 56 9.313225746155e-10-2.455635694787e-11 5.624700000000e+05
    -1.913878440000e+04-5.750000000000e-05 1.250000000000e-08 3.100000000000e+01
    -3.757156608000e+04 1.200000000000e-04 0.000000000000e+00 2.000000000000e+00
     2.300000000000e+00 1.760000000000e-04 0.000000000000e+00 1.080000000000e+02
S31 2026 08 08 12 19 12-5.122274160385e-09-2.455635694787e-11 5.627260000000e+05
    -1.913879872000e+04-5.250000000000e-05 1.250000000000e-08 3.100000000000e+01
    -3.757153536000e+04 1.206250000000e-04 0.000000000000e+00 2.000000000000e+00
     2.345200000000e+00 1.720000000000e-04 0.000000000000e+00 1.090000000000e+02
S31 2026 08 08 12 23 28-1.117587089539e-08-2.546585164964e-11 5.629840000000e+05
    -1.913881176000e+04-4.937500000000e-05 1.250000000000e-08 3.100000000000e+01
    -3.757150448000e+04 1.200000000000e-04 0.000000000000e+00 2.000000000000e+00
     2.389200000000e+00 1.720000000000e-04 0.000000000000e+00 1.100000000000e+02
S31 2026 08 08 12 27 44-1.769512891769e-08-2.728484105319e-11 5.632380000000e+05
    -1.913882400000e+04-4.562500000000e-05 1.250000000000e-08 3.100000000000e+01
    -3.757147376000e+04 1.193750000000e-04 0.000000000000e+00 2.000000000000e+00
     2.433200000000e+00 1.680000000000e-04 0.000000000000e+00 1.110000000000e+02
S31 2026 08 08 12 32 00-2.468004822731e-08-2.728484105319e-11 5.634940000000e+05
    -1.913883528000e+04-4.250000000000e-05 1.250000000000e-08 3.100000000000e+01
    -3.757144320000e+04 1.175000000000e-04 0.000000000000e+00 2.000000000000e+00
     2.476400000000e+00 1.640000000000e-04 0.000000000000e+00 1.120000000000e+02
S31 2026 08 08 12 36 16-3.166496753693e-08-2.637534635141e-11 5.637520000000e+05
    -1.913884576000e+04-3.937500000000e-05 1.250000000000e-08 3.100000000000e+01
    -3.757141312000e+04 1.162500000000e-04 0.000000000000e+00 2.000000000000e+00
     2.518400000000e+00 1.600000000000e-04 0.000000000000e+00 1.130000000000e+02
S31 2026 08 08 12 40 32-3.818422555923e-08-2.364686224610e-11 5.640060000000e+05
    -1.913885544000e+04-3.687500000000e-05 1.250000000000e-08 3.100000000000e+01
    -3.757138336000e+04 1.137500000000e-04 0.000000000000e+00 2.000000000000e+00
     2.559200000000e+00 1.600000000000e-04 0.000000000000e+00 1.140000000000e+02
S31 2026 08 08 12 44 48-4.423782229424e-08-2.091837814078e-11 5.642620000000e+05
    -1.913886448000e+04-3.062500000000e-05 1.250000000000e-08 3.100000000000e+01
    -3.757135424000e+04 1.143750000000e-04 0.000000000000e+00 2.000000000000e+00
     2.600000000000e+00 1.600000000000e-04 0.000000000000e+00 1.150000000000e+02
S31 2026 08 08 12 49 04-4.936009645462e-08-1.637090463191e-11 5.645200000000e+05
    -1.913887192000e+04-2.687500000000e-05 1.250000000000e-08 3.100000000000e+01
    -3.757132496000e+04 1.137500000000e-04 0.000000000000e+00 2.000000000000e+00
     2.640800000000e+00 1.520000000000e-04 0.000000000000e+00 1.160000000000e+02
S31 2026 08 08 12 53 20-5.355104804039e-08-1.364242052659e-11 5.647740000000e+05
    -1.913887840000e+04-2.250000000000e-05 1.250000000000e-08 3.100000000000e+01
    -3.757129584000e+04 1.125000000000e-04 0.000000000000e+00 2.000000000000e+00
     2.679600000000e+00 1.560000000000e-04 0.000000000000e+00 1.170000000000e+02
S31 2026 08 08 12 57 36-5.681067705154e-08-1.000444171950e-11 5.650300000000e+05
    -1.913888376000e+04-1.750000000000e-05 1.250000000000e-08 3.100000000000e+01
    -3.757126704000e+04 1.106250000000e-04 0.000000000000e+00 2.000000000000e+00
     2.719600000000e+00 1.480000000000e-04 0.000000000000e+00 1.180000000000e+02
S33 2026 08 08 11 02 24-6.332993507385e-08-1.818989403546e-11 5.581220000000e+05
    -2.662196832000e+04-3.075000000000e-04 1.250000000000e-08 3.100000000000e+01
    -3.270101768000e+04 2.312500000000e-04 1.250000000000e-08 2.000000000000e+00
     2.047600000000e+00 1.116000000000e-03 0.000000000000e+00 1.880000000000e+02
S33 2026 08 08 11 06 40-6.798654794693e-08-1.728039933369e-11 5.583740000000e+05
    -2.662204664000e+04-3.068750000000e-04 1.250000000000e-08 3.100000000000e+01
    -3.270095808000e+04 2.350000000000e-04 1.250000000000e-08 2.000000000000e+00
     2.333200000000e+00 1.116000000000e-03 0.000000000000e+00 1.890000000000e+02
S33 2026 08 08 11 10 56-7.217749953270e-08-1.637090463191e-11 5.586310000000e+05
    -2.662212480000e+04-3.043750000000e-04 1.250000000000e-08 3.100000000000e+01
    -3.270089752000e+04 2.381250000000e-04 1.250000000000e-08 2.000000000000e+00
     2.618800000000e+00 1.112000000000e-03 0.000000000000e+00 1.900000000000e+02
S33 2026 08 08 11 15 12-7.636845111847e-08-1.546140993014e-11 5.588900000000e+05
    -2.662220232000e+04-3.031250000000e-04 1.250000000000e-08 3.100000000000e+01
    -3.270083616000e+04 2.418750000000e-04 1.250000000000e-08 2.000000000000e+00
     2.903600000000e+00 1.104000000000e-03 0.000000000000e+00 1.910000000000e+02
S33 2026 08 08 11 19 28-8.009374141693e-08-1.364242052659e-11 5.591420000000e+05
    -2.662227952000e+04-3.006250000000e-04 1.250000000000e-08 3.100000000000e+01
    -3.270077384000e+04 2.450000000000e-04 1.250000000000e-08 2.000000000000e+00
     3.186400000000e+00 1.104000000000e-03 0.000000000000e+00 1.920000000000e+02
S33 2026 08 08 11 23 44-8.335337042809e-08-1.273292582482e-11 5.593990000000e+05
    -2.662235608000e+04-2.981250000000e-04 1.250000000000e-08 3.100000000000e+01
    -3.270071072000e+04 2.481250000000e-04 1.250000000000e-08 2.000000000000e+00
     3.469200000000e+00 1.096000000000e-03 0.000000000000e+00 1.930000000000e+02
S33 2026 08 08 11 28 00-8.661299943924e-08-1.182343112305e-11 5.596580000000e+05
    -2.662243200000e+04-2.962500000000e-04 1.250000000000e-08 3.100000000000e+01
    -3.270064680000e+04 2.506250000000e-04 1.250000000000e-08 2.000000000000e+00
     3.749600000000e+00 1.092000000000e-03 0.000000000000e+00 1.940000000000e+02
S33 2026 08 08 11 32 16-8.940696716309e-08-9.094947017729e-12 5.599100000000e+05
    -2.662250744000e+04-2.937500000000e-04 1.250000000000e-08 3.100000000000e+01
    -3.270058224000e+04 2.537500000000e-04 1.250000000000e-08 2.000000000000e+00
     4.029200000000e+00 1.088000000000e-03 0.000000000000e+00 1.950000000000e+02
S33 2026 08 08 11 36 32-9.173527359962e-08-6.366462912410e-12 5.601670000000e+05
    -2.662258224000e+04-2.900000000000e-04 1.250000000000e-08 3.100000000000e+01
    -3.270051688000e+04 2.568750000000e-04 1.250000000000e-08 2.000000000000e+00
     4.307600000000e+00 1.080000000000e-03 0.000000000000e+00 1.960000000000e+02
S33 2026 08 08 11 40 48-9.313225746155e-08-3.637978807092e-12 5.604260000000e+05
    -2.662265608000e+04-2.862500000000e-04 1.250000000000e-08 3.100000000000e+01
    -3.270045072000e+04 2.606250000000e-04 1.250000000000e-08 2.000000000000e+00
     4.584000000000e+00 1.072000000000e-03 0.000000000000e+00 1.970000000000e+02
S33 2026 08 08 11 45 04-9.406358003616e-08-3.637978807092e-12 5.606780000000e+05
    -2.662272896000e+04-2.818750000000e-04 1.250000000000e-08 3.100000000000e+01
    -3.270038360000e+04 2.637500000000e-04 1.250000000000e-08 2.000000000000e+00
     4.858400000000e+00 1.068000000000e-03 0.000000000000e+00 1.980000000000e+02
S33 2026 08 08 11 49 20-9.499490261078e-08-3.637978807092e-12 5.609350000000e+05
    -2.662280072000e+04-2.781250000000e-04 1.250000000000e-08 3.100000000000e+01
    -3.270031568000e+04 2.656250000000e-04 1.250000000000e-08 2.000000000000e+00
     5.132000000000e+00 1.064000000000e-03 0.000000000000e+00 1.990000000000e+02
S33 2026 08 08 11 53 36-9.592622518539e-08-5.456968210638e-12 5.611940000000e+05
    -2.662287152000e+04-2.750000000000e-04 1.250000000000e-08 3.100000000000e+01
    -3.270024728000e+04 2.681250000000e-04 1.250000000000e-08 2.000000000000e+00
     5.404400000000e+00 1.052000000000e-03 0.000000000000e+00 2.000000000000e+02
S33 2026 08 08 11 57 52-9.732320904732e-08-7.275957614183e-12 5.614460000000e+05
    -2.662294152000e+04-2.700000000000e-04 1.250000000000e-08 3.100000000000e+01
    -3.270017824000e+04 2.712500000000e-04 1.250000000000e-08 2.000000000000e+00
     5.673600000000e+00 1.044000000000e-03 0.000000000000e+00 2.010000000000e+02
S33 2026 08 08 12 02 08-9.918585419655e-08-1.000444171950e-11 5.617030000000e+05
    -2.662301024000e+04-2.662500000000e-04 1.250000000000e-08 3.100000000000e+01
    -3.270010840000e+04 2.731250000000e-04 1.250000000000e-08 2.000000000000e+00
     5.940800000000e+00 1.040000000000e-03-6.250000000000e-08 2.020000000000e+02
S33 2026 08 08 12 06 24-1.015141606331e-07-1.182343112305e-11 5.619620000000e+05
    -2.662307800000e+04-2.618750000000e-04 1.250000000000e-08 3.100000000000e+01
    -3.270003808000e+04 2.756250000000e-04 1.250000000000e-08 2.000000000000e+00
     6.204800000000e+00 1.036000000000e-03-6.250000000000e-08 2.030000000000e+02
S33 2026 08 08 12 10 40-1.043081283569e-07-1.455191522837e-11 5.622140000000e+05
    -2.662314464000e+04-2.581250000000e-04 1.250000000000e-08 3.100000000000e+01
    -3.269996712000e+04 2.768750000000e-04 1.250000000000e-08 2.000000000000e+00
     6.468000000000e+00 1.028000000000e-03-6.250000000000e-08 2.040000000000e+02
S33 2026 08 08 12 14 56-1.080334186554e-07-1.637090463191e-11 5.624710000000e+05
    -2.662321032000e+04-2.525000000000e-04 1.250000000000e-08 3.100000000000e+01
    -3.269989584000e+04 2.793750000000e-04 1.250000000000e-08 2.000000000000e+00
     6.729200000000e+00 1.020000000000e-03-6.250000000000e-08 2.050000000000e+02
S33 2026 08 08 12 19 12-1.122243702412e-07-1.728039933369e-11 5.627300000000e+05
    -2.662327456000e+04-2.456250000000e-04 1.250000000000e-08 3.100000000000e+01
    -3.269982392000e+04 2.818750000000e-04 0.000000000000e+00 2.000000000000e+00
     6.988400000000e+00 1.012000000000e-03-6.250000000000e-08 2.060000000000e+02
S33 2026 08 08 12 23 28-1.164153218269e-07-1.909938873723e-11 5.629820000000e+05
    -2.662333704000e+04-2.418750000000e-04 2.500000000000e-08 3.100000000000e+01
    -3.269975176000e+04 2.843750000000e-04 0.000000000000e+00 2.000000000000e+00
     7.245600000000e+00 1.000000000000e-03-6.250000000000e-08 2.070000000000e+02
S33 2026 08 08 12 27 44-1.210719347000e-07-2.091837814078e-11 5.632390000000e+05
    -2.662339816000e+04-2.400000000000e-04 2.500000000000e-08 3.100000000000e+01
    -3.269967896000e+04 2.850000000000e-04 0.000000000000e+00 2.000000000000e+00
     7.499600000000e+00 9.880000000000e-04-6.250000000000e-08 2.080000000000e+02
S33 2026 08 08 12 32 00-1.261942088604e-07-2.273736754432e-11 5.634980000000e+05
    -2.662345880000e+04-2.368750000000e-04 2.500000000000e-08 3.100000000000e+01
    -3.269960600000e+04 2.850000000000e-04 0.000000000000e+00 2.000000000000e+00
     7.750400000000e+00 9.800000000000e-04-6.250000000000e-08 2.090000000000e+02
S33 2026 08 08 12 36 16-1.317821443081e-07-2.364686224610e-11 5.637500000000e+05
    -2.662351864000e+04-2.337500000000e-04 2.500000000000e-08 3.100000000000e+01
    -3.269953304000e+04 2.843750000000e-04 0.000000000000e+00 2.000000000000e+00
     7.999200000000e+00 9.720000000000e-04-6.250000000000e-08 2.100000000000e+02
S33 2026 08 08 12 40 32-1.378357410431e-07-2.273736754432e-11 5.640070000000e+05
    -2.662357768000e+04-2.256250000000e-04 2.500000000000e-08 3.100000000000e+01
    -3.269946024000e+04 2.875000000000e-04 0.000000000000e+00 2.000000000000e+00
     8.246000000000e+00 9.560000000000e-04-6.250000000000e-08 2.110000000000e+02
S33 2026 08 08 12 44 48-1.434236764908e-07-1.909938873723e-11 5.642660000000e+05
    -2.662363464000e+04-2.250000000000e-04 2.500000000000e-08 3.100000000000e+01
    -3.269938664000e+04 2.856250000000e-04 0.000000000000e+00 2.000000000000e+00
     8.488800000000e+00 9.480000000000e-04-6.250000000000e-08 2.120000000000e+02
S33 2026 08 08 12 49 04-1.480802893639e-07-1.546140993014e-11 5.645180000000e+05
    -2.662369144000e+04-2.187500000000e-04 2.500000000000e-08 3.100000000000e+01
    -3.269931352000e+04 2.862500000000e-04 0.000000000000e+00 2.000000000000e+00
     8.729600000000e+00 9.360000000000e-04-6.250000000000e-08 2.130000000000e+02
S33 2026 08 08 12 53 20-1.518055796623e-07-1.091393642128e-11 5.647750000000e+05
    -2.662374664000e+04-2.137500000000e-04 2.500000000000e-08 3.100000000000e+01
    -3.269924024000e+04 2.862500000000e-04 0.000000000000e+00 2.000000000000e+00
     8.967200000000e+00 9.280000000000e-04-6.250000000000e-08 2.140000000000e+02
S33 2026 08 08 12 57 36-1.545995473862e-07-6.366462912410e-12 5.650340000000e+05
    -2.662380056000e+04-2.081250000000e-04 2.500000000000e-08 3.100000000000e+01
    -3.269916696000e+04 2.868750000000e-04 0.000000000000e+00 2.000000000000e+00
     9.202800000000e+00 9.120000000000e-04-6.250000000000e-08 2.150000000000e+02
S35 2026 08 08 11 02 24-1.210719347000e-08 2.728484105319e-12 5.581220000000e+05
    -2.420505384000e+04-9.731250000000e-04 7.500000000000e-08 3.100000000000e+01
    -3.453630848000e+04 1.043750000000e-03 2.500000000000e-08 2.000000000000e+00
    -1.328560000000e+01 1.880000000000e-04 6.250000000000e-08 9.100000000000e+01
S35 2026 08 08 11 06 40-1.117587089539e-08 2.728484105319e-12 5.583740000000e+05
    -2.420530048000e+04-9.568750000000e-04 7.500000000000e-08 3.100000000000e+01
    -3.453604048000e+04 1.050000000000e-03 2.500000000000e-08 2.000000000000e+00
    -1.323560000000e+01 2.080000000000e-04 6.250000000000e-08 9.200000000000e+01
S35 2026 08 08 11 10 56-1.024454832077e-08 1.818989403546e-12 5.586310000000e+05
    -2.420554296000e+04-9.381250000000e-04 7.500000000000e-08 3.100000000000e+01
    -3.453577088000e+04 1.054375000000e-03 2.500000000000e-08 2.000000000000e+00
    -1.318040000000e+01 2.280000000000e-04 6.250000000000e-08 9.300000000000e+01
S35 2026 08 08 11 15 12-9.778887033463e-09 2.728484105319e-12 5.588900000000e+05
    -2.420578064000e+04-9.181250000000e-04 7.500000000000e-08 3.100000000000e+01
    -3.453550016000e+04 1.061250000000e-03 1.250000000000e-08 2.000000000000e+00
    -1.312000000000e+01 2.400000000000e-04 6.250000000000e-08 9.400000000000e+01
S35 2026 08 08 11 19 28-8.847564458847e-09 3.637978807092e-12 5.591420000000e+05
    -2.420601320000e+04-9.006250000000e-04 7.500000000000e-08 3.100000000000e+01
    -3.453522808000e+04 1.065625000000e-03 1.250000000000e-08 2.000000000000e+00
    -1.305640000000e+01 2.640000000000e-04 6.250000000000e-08 9.500000000000e+01
S35 2026 08 08 11 23 44-7.916241884232e-09 4.547473508865e-12 5.593990000000e+05
    -2.420624128000e+04-8.818750000000e-04 7.500000000000e-08 3.100000000000e+01
    -3.453495488000e+04 1.068750000000e-03 1.250000000000e-08 2.000000000000e+00
    -1.298680000000e+01 2.760000000000e-04 6.250000000000e-08 9.600000000000e+01
S35 2026 08 08 11 28 00-6.519258022308e-09 7.275957614183e-12 5.596580000000e+05
    -2.420646456000e+04-8.612500000000e-04 7.500000000000e-08 3.100000000000e+01
    -3.453468088000e+04 1.072500000000e-03 1.250000000000e-08 2.000000000000e+00
    -1.291400000000e+01 3.000000000000e-04 6.250000000000e-08 9.700000000000e+01
S35 2026 08 08 11 32 16-4.656612873077e-09 9.094947017729e-12 5.599100000000e+05
    -2.420668256000e+04-8.412500000000e-04 7.500000000000e-08 3.100000000000e+01
    -3.453440592000e+04 1.075625000000e-03 1.250000000000e-08 2.000000000000e+00
    -1.283520000000e+01 3.120000000000e-04 6.250000000000e-08 9.800000000000e+01
S35 2026 08 08 11 36 32-2.328306436539e-09 1.091393642128e-11 5.601670000000e+05
    -2.420689544000e+04-8.193750000000e-04 8.750000000000e-08 3.100000000000e+01
    -3.453413016000e+04 1.078750000000e-03 1.250000000000e-08 2.000000000000e+00
    -1.275320000000e+01 3.320000000000e-04 6.250000000000e-08 9.900000000000e+01
S35 2026 08 08 11 40 48 4.656612873077e-10 1.182343112305e-11 5.604260000000e+05
    -2.420710232000e+04-7.981250000000e-04 8.750000000000e-08 3.100000000000e+01
    -3.453385360000e+04 1.082500000000e-03 1.250000000000e-08 2.000000000000e+00
    -1.266600000000e+01 3.520000000000e-04 6.250000000000e-08 1.000000000000e+02
S35 2026 08 08 11 45 04 3.259629011154e-09 1.091393642128e-11 5.606780000000e+05
    -2.420730376000e+04-7.768750000000e-04 8.750000000000e-08 3.100000000000e+01
    -3.453357608000e+04 1.083750000000e-03 0.000000000000e+00 2.000000000000e+00
    -1.257400000000e+01 3.640000000000e-04 6.250000000000e-08 1.010000000000e+02
S35 2026 08 08 11 49 20 6.053596735001e-09 9.094947017729e-12 5.609350000000e+05
    -2.420749976000e+04-7.537500000000e-04 8.750000000000e-08 3.100000000000e+01
    -3.453329864000e+04 1.086875000000e-03 0.000000000000e+00 2.000000000000e+00
    -1.247880000000e+01 3.840000000000e-04 6.250000000000e-08 1.020000000000e+02
S35 2026 08 08 11 53 36 8.381903171539e-09 6.366462912410e-12 5.611940000000e+05
    -2.420768984000e+04-7.306250000000e-04 8.750000000000e-08 3.100000000000e+01
    -3.453302040000e+04 1.088125000000e-03 0.000000000000e+00 2.000000000000e+00
    -1.237840000000e+01 4.000000000000e-04 6.250000000000e-08 1.030000000000e+02
S35 2026 08 08 11 57 52 9.778887033463e-09 3.637978807092e-12 5.614460000000e+05
    -2.420787400000e+04-7.081250000000e-04 8.750000000000e-08 3.100000000000e+01
    -3.453274184000e+04 1.088750000000e-03 0.000000000000e+00 2.000000000000e+00
    -1.227400000000e+01 4.200000000000e-04 6.250000000000e-08 1.040000000000e+02
S35 2026 08 08 12 02 08 1.071020960808e-08 0.000000000000e+00 5.617030000000e+05
    -2.420805240000e+04-6.843750000000e-04 8.750000000000e-08 3.100000000000e+01
    -3.453246312000e+04 1.088750000000e-03 0.000000000000e+00 2.000000000000e+00
    -1.216440000000e+01 4.320000000000e-04 6.250000000000e-08 1.050000000000e+02
S35 2026 08 08 12 06 24 1.071020960808e-08-3.637978807092e-12 5.619620000000e+05
    -2.420822472000e+04-6.606250000000e-04 8.750000000000e-08 3.100000000000e+01
    -3.453218440000e+04 1.089375000000e-03 0.000000000000e+00 2.000000000000e+00
    -1.205160000000e+01 4.520000000000e-04 6.250000000000e-08 1.060000000000e+02
S35 2026 08 08 12 10 40 9.778887033463e-09-7.275957614183e-12 5.622140000000e+05
    -2.420839096000e+04-6.387500000000e-04 8.750000000000e-08 3.100000000000e+01
    -3.453190552000e+04 1.086250000000e-03 0.000000000000e+00 2.000000000000e+00
    -1.193400000000e+01 4.640000000000e-04 6.250000000000e-08 1.070000000000e+02
S35 2026 08 08 12 14 56 7.916241884232e-09-1.000444171950e-11 5.624710000000e+05
    -2.420855160000e+04-6.118750000000e-04 1.000000000000e-07 3.100000000000e+01
    -3.453162744000e+04 1.086875000000e-03-1.250000000000e-08 2.000000000000e+00
    -1.181320000000e+01 4.840000000000e-04 6.250000000000e-08 1.080000000000e+02
S35 2026 08 08 12 19 12 5.122274160385e-09-1.182343112305e-11 5.627300000000e+05
    -2.420870496000e+04-5.875000000000e-04 1.000000000000e-07 3.100000000000e+01
    -3.453134960000e+04 1.087500000000e-03-1.250000000000e-08 2.000000000000e+00
    -1.168720000000e+01 5.000000000000e-04 6.250000000000e-08 1.090000000000e+02
S35 2026 08 08 12 23 28 1.862645149231e-09-1.273292582482e-11 5.629820000000e+05
    -2.420885208000e+04-5.637500000000e-04 1.000000000000e-07 3.100000000000e+01
    -3.453107160000e+04 1.083750000000e-03-1.250000000000e-08 2.000000000000e+00
    -1.155720000000e+01 5.160000000000e-04 6.250000000000e-08 1.100000000000e+02
S35 2026 08 08 12 27 44-1.396983861923e-09-1.455191522837e-11 5.632390000000e+05
    -2.420899312000e+04-5.400000000000e-04 1.000000000000e-07 3.100000000000e+01
    -3.453079456000e+04 1.081250000000e-03-1.250000000000e-08 2.000000000000e+00
    -1.142320000000e+01 5.320000000000e-04 6.250000000000e-08 1.110000000000e+02
S35 2026 08 08 12 32 00-5.122274160385e-09-1.637090463191e-11 5.634980000000e+05
    -2.420912808000e+04-5.162500000000e-04 1.000000000000e-07 3.100000000000e+01
    -3.453051816000e+04 1.076250000000e-03-1.250000000000e-08 2.000000000000e+00
    -1.128480000000e+01 5.480000000000e-04 6.250000000000e-08 1.120000000000e+02
S35 2026 08 08 12 36 16-9.313225746155e-09-1.728039933369e-11 5.637500000000e+05
    -2.420925696000e+04-4.925000000000e-04 1.000000000000e-07 3.100000000000e+01
    -3.453024304000e+04 1.071250000000e-03-1.250000000000e-08 2.000000000000e+00
    -1.114240000000e+01 5.640000000000e-04 6.250000000000e-08 1.130000000000e+02
S35 2026 08 08 12 40 32-1.350417733192e-08-1.546140993014e-11 5.640070000000e+05
    -2.420937976000e+04-4.668750000000e-04 1.000000000000e-07 3.100000000000e+01
    -3.452996920000e+04 1.067500000000e-03-1.250000000000e-08 2.000000000000e+00
    -1.099600000000e+01 5.800000000000e-04 6.250000000000e-08 1.140000000000e+02
S35 2026 08 08 12 44 48-1.722946763039e-08-1.273292582482e-11 5.642660000000e+05
    -2.420949600000e+04-4.418750000000e-04 1.000000000000e-07 3.100000000000e+01
    -3.452969632000e+04 1.061250000000e-03-2.500000000000e-08 2.000000000000e+00
    -1.084560000000e+01 5.920000000000e-04 6.250000000000e-08 1.150000000000e+02
S35 2026 08 08 12 49 04-2.048909664154e-08-9.094947017729e-12 5.645180000000e+05
    -2.420960584000e+04-4.156250000000e-04 1.000000000000e-07 3.100000000000e+01
    -3.452942544000e+04 1.058750000000e-03-2.500000000000e-08 2.000000000000e+00
    -1.069200000000e+01 6.120000000000e-04 6.250000000000e-08 1.160000000000e+02
S35 2026 08 08 12 53 20-2.281740307808e-08-4.547473508865e-12 5.647750000000e+05
    -2.420970896000e+04-3.893750000000e-04 1.000000000000e-07 3.100000000000e+01
    -3.452915520000e+04 1.052500000000e-03-2.500000000000e-08 2.000000000000e+00
    -1.053320000000e+01 6.240000000000e-04 6.250000000000e-08 1.170000000000e+02
S35 2026 08 08 12 57 36-2.374872565269e-08 0.000000000000e+00 5.650340000000e+05
    -2.420980536000e+04-3.631250000000e-04 1.000000000000e-07 3.100000000000e+01
    -3.452888656000e+04 1.046250000000e-03-2.500000000000e-08 2.000000000000e+00
    -1.037160000000e+01 6.400000000000e-04 6.250000000000e-08 1.180000000000e+02
